{
  "type": "FeatureCollection",
  "features": [
    {
      "type": "Feature",
      "properties": {
        "norad_id": 31692,
        "name": "FENGYUN 1C DEB",
        "group": "fengyun-1c-debris",
        "lat": -33.434021963622406,
        "lon": -4.530600035241176,
        "alt_km": 845.9230937191551,
        "timestamp": "2025-12-18T15:47:11.507013+00:00",
        "meta_object_name": "FENGYUN 1C DEB",
        "meta_object_id": "1999-025CDA",
        "meta_epoch": "2025-12-13T19:07:47.653248",
        "meta_mean_motion": 14.1836456,
        "meta_eccentricity": 0.00879373,
        "meta_inclination": 99.1765,
        "meta_ra_of_asc_node": 344.318,
        "meta_arg_of_pericenter": 78.7556,
        "meta_mean_anomaly": 282.3486,
        "meta_ephemeris_type": 0,
        "meta_classification_type": "U",
        "meta_norad_cat_id": 31692,
        "meta_element_set_no": 999,
        "meta_rev_at_epoch": 58224,
        "meta_bstar": 0.0032581742,
        "meta_mean_motion_dot": 6.94e-05,
        "meta_mean_motion_ddot": 0,
        "tle_line1": "1 31692U 99025CDA 25347.79707932  .00006940  00000+0  32582-2 0  9991",
        "tle_line2": "2 31692  99.1765 344.3180 0087937  78.7556 282.3486 14.18364560582247"
      },
      "geometry": {
        "type": "Point",
        "coordinates": [
          -4.530600035241176,
          -33.434021963622406
        ]
      }
    },
    {
      "type": "Feature",
      "properties": {
        "norad_id": 31695,
        "name": "FENGYUN 1C DEB",
        "group": "fengyun-1c-debris",
        "lat": -15.43570302019027,
        "lon": -105.21223399948714,
        "alt_km": 534.4263297908301,
        "timestamp": "2025-12-18T15:47:11.507037+00:00",
        "meta_object_name": "FENGYUN 1C DEB",
        "meta_object_id": "1999-025CDD",
        "meta_epoch": "2025-12-18T01:51:35.837568",
        "meta_mean_motion": 14.73795278,
        "meta_eccentricity": 0.01749049,
        "meta_inclination": 98.2651,
        "meta_ra_of_asc_node": 76.4965,
        "meta_arg_of_pericenter": 211.5312,
        "meta_mean_anomaly": 147.5322,
        "meta_ephemeris_type": 0,
        "meta_classification_type": "U",
        "meta_norad_cat_id": 31695,
        "meta_element_set_no": 999,
        "meta_rev_at_epoch": 66050,
        "meta_bstar": 0.0012541591,
        "meta_mean_motion_dot": 0.00010438,
        "meta_mean_motion_ddot": 0,
        "tle_line1": "1 31695U 99025CDD 25352.07749812  .00010438  00000+0  12542-2 0  9995",
        "tle_line2": "2 31695  98.2651  76.4965 0174904 211.5312 147.5322 14.73795278660508"
      },
      "geometry": {
        "type": "Point",
        "coordinates": [
          -105.21223399948714,
          -15.43570302019027
        ]
      }
    },
    {
      "type": "Feature",
      "properties": {
        "norad_id": 31714,
        "name": "FENGYUN 1C DEB",
        "group": "fengyun-1c-debris",
        "lat": -53.956709309164026,
        "lon": 61.03244054887204,
        "alt_km": 601.2354468725744,
        "timestamp": "2025-12-18T15:47:11.507048+00:00",
        "meta_object_name": "FENGYUN 1C DEB",
        "meta_object_id": "1999-025CDM",
        "meta_epoch": "2025-12-17T05:32:06.258336",
        "meta_mean_motion": 14.88513317,
        "meta_eccentricity": 0.00174212,
        "meta_inclination": 99.0319,
        "meta_ra_of_asc_node": 252.0332,
        "meta_arg_of_pericenter": 288.7858,
        "meta_mean_anomaly": 222.8977,
        "meta_ephemeris_type": 0,
        "meta_classification_type": "U",
        "meta_norad_cat_id": 31714,
        "meta_element_set_no": 999,
        "meta_rev_at_epoch": 96116,
        "meta_bstar": 0.0048606026,
        "meta_mean_motion_dot": 0.0004552,
        "meta_mean_motion_ddot": 0,
        "tle_line1": "1 31714U 99025CDM 25351.23062799  .00045520  00000+0  48606-2 0  9996",
        "tle_line2": "2 31714  99.0319 252.0332 0017421 288.7858 222.8977 14.88513317961168"
      },
      "geometry": {
        "type": "Point",
        "coordinates": [
          61.03244054887204,
          -53.956709309164026
        ]
      }
    },
    {
      "type": "Feature",
      "properties": {
        "norad_id": 31715,
        "name": "FENGYUN 1C DEB",
        "group": "fengyun-1c-debris",
        "lat": -63.4225946686866,
        "lon": -16.994462041869742,
        "alt_km": 830.8633328896958,
        "timestamp": "2025-12-18T15:47:11.507058+00:00",
        "meta_object_name": "FENGYUN 1C DEB",
        "meta_object_id": "1999-025CDN",
        "meta_epoch": "2025-12-18T06:24:34.673472",
        "meta_mean_motion": 14.5220919,
        "meta_eccentricity": 0.01870722,
        "meta_inclination": 99.2921,
        "meta_ra_of_asc_node": 181.6763,
        "meta_arg_of_pericenter": 103.0013,
        "meta_mean_anomaly": 259.2139,
        "meta_ephemeris_type": 0,
        "meta_classification_type": "U",
        "meta_norad_cat_id": 31715,
        "meta_element_set_no": 999,
        "meta_rev_at_epoch": 61797,
        "meta_bstar": 0.00065902481,
        "meta_mean_motion_dot": 3.301e-05,
        "meta_mean_motion_ddot": 0,
        "tle_line1": "1 31715U 99025CDN 25352.26706798  .00003301  00000+0  65902-3 0  9995",
        "tle_line2": "2 31715  99.2921 181.6763 0187072 103.0013 259.2139 14.52209190617970"
      },
      "geometry": {
        "type": "Point",
        "coordinates": [
          -16.994462041869742,
          -63.4225946686866
        ]
      }
    },
    {
      "type": "Feature",
      "properties": {
        "norad_id": 31716,
        "name": "FENGYUN 1C DEB",
        "group": "fengyun-1c-debris",
        "lat": -52.55419284661677,
        "lon": 59.95352476065449,
        "alt_km": 976.4545977692806,
        "timestamp": "2025-12-18T15:47:11.507071+00:00",
        "meta_object_name": "FENGYUN 1C DEB",
        "meta_object_id": "1999-025CDP",
        "meta_epoch": "2025-12-18T05:07:46.520832",
        "meta_mean_motion": 14.03631041,
        "meta_eccentricity": 0.01308082,
        "meta_inclination": 98.5551,
        "meta_ra_of_asc_node": 250.8713,
        "meta_arg_of_pericenter": 75.9481,
        "meta_mean_anomaly": 74.3189,
        "meta_ephemeris_type": 0,
        "meta_classification_type": "U",
        "meta_norad_cat_id": 31716,
        "meta_element_set_no": 999,
        "meta_rev_at_epoch": 94196,
        "meta_bstar": 0.0011575331,
        "meta_mean_motion_dot": 1.922e-05,
        "meta_mean_motion_ddot": 0,
        "tle_line1": "1 31716U 99025CDP 25352.21373288  .00001922  00000+0  11575-2 0  9998",
        "tle_line2": "2 31716  98.5551 250.8713 0130808  75.9481  74.3189 14.03631041941967"
      },
      "geometry": {
        "type": "Point",
        "coordinates": [
          59.95352476065449,
          -52.55419284661677
        ]
      }
    },
    {
      "type": "Feature",
      "properties": {
        "norad_id": 31720,
        "name": "FENGYUN 1C DEB",
        "group": "fengyun-1c-debris",
        "lat": 32.28576002796926,
        "lon": -100.54107643081454,
        "alt_km": 631.3034106731457,
        "timestamp": "2025-12-18T15:47:11.507081+00:00",
        "meta_object_name": "FENGYUN 1C DEB",
        "meta_object_id": "1999-025CDT",
        "meta_epoch": "2025-12-17T00:28:52.679424",
        "meta_mean_motion": 14.71860526,
        "meta_eccentricity": 0.01002517,
        "meta_inclination": 99.048,
        "meta_ra_of_asc_node": 263.4173,
        "meta_arg_of_pericenter": 110.3863,
        "meta_mean_anomaly": 250.8144,
        "meta_ephemeris_type": 0,
        "meta_classification_type": "U",
        "meta_norad_cat_id": 31720,
        "meta_element_set_no": 999,
        "meta_rev_at_epoch": 98299,
        "meta_bstar": 0.00056875806,
        "meta_mean_motion_dot": 3.786e-05,
        "meta_mean_motion_ddot": 0,
        "tle_line1": "1 31720U 99025CDT 25351.02005416  .00003786  00000+0  56876-3 0  9990",
        "tle_line2": "2 31720  99.0480 263.4173 0100251 110.3863 250.8144 14.71860526982993"
      },
      "geometry": {
        "type": "Point",
        "coordinates": [
          -100.54107643081454,
          32.28576002796926
        ]
      }
    },
    {
      "type": "Feature",
      "properties": {
        "norad_id": 31721,
        "name": "FENGYUN 1C DEB",
        "group": "fengyun-1c-debris",
        "lat": -12.59250419866578,
        "lon": 150.21510501087656,
        "alt_km": 776.2332032898539,
        "timestamp": "2025-12-18T15:47:11.507091+00:00",
        "meta_object_name": "FENGYUN 1C DEB",
        "meta_object_id": "1999-025CDU",
        "meta_epoch": "2025-12-14T04:19:36.790752",
        "meta_mean_motion": 13.73779302,
        "meta_eccentricity": 0.03174412,
        "meta_inclination": 99.7811,
        "meta_ra_of_asc_node": 327.8381,
        "meta_arg_of_pericenter": 179.7828,
        "meta_mean_anomaly": 199.0539,
        "meta_ephemeris_type": 0,
        "meta_classification_type": "U",
        "meta_norad_cat_id": 31721,
        "meta_element_set_no": 999,
        "meta_rev_at_epoch": 67406,
        "meta_bstar": 0.00045246287,
        "meta_mean_motion_dot": 5.63e-06,
        "meta_mean_motion_ddot": 0,
        "tle_line1": "1 31721U 99025CDU 25348.18028693  .00000563  00000+0  45246-3 0  9995",
        "tle_line2": "2 31721  99.7811 327.8381 0317441 179.7828 199.0539 13.73779302674066"
      },
      "geometry": {
        "type": "Point",
        "coordinates": [
          150.21510501087656,
          -12.59250419866578
        ]
      }
    }
  ]
}